              M50 Cartesian                         J2K Cartesian  
    -----------------------------------       --------------------------------
     X    =       17092770.68                 X    =         5221843.95
     Y    =        2489904.85  feet           Y    =          817250.74  meter
     Z    =      -14076371.47                 Z    =        -4265140.79
     XDOT =     -12366.403069                 XDOT =       -3814.435061
     YDOT =      18438.751007  feet/sec       YDOT =        5577.728386  meter/sec
     ZDOT =     -11759.174456                 ZDOT =       -3602.615702
 
              TDR Cartesian                         TDR Cartesian  
    -----------------------------------       --------------------------------
     X    =       16592417.61                 X    =         5057368.89
     Y    =        5125626.32  feet           Y    =         1562290.90  meter
     Z    =      -13961600.97                 Z    =        -4255495.98
     XDOT =     -14625.636943                 XDOT =       -4457.894140
     YDOT =      15098.119274  feet/sec       YDOT =        4601.906755  meter/sec
     ZDOT =     -11843.090943                 ZDOT =       -3609.774120
  
  
    The mean element set is posted at the UTC for which position is
    just north of the next ascending node relative to the above
    vector time
 
 
    TWO LINE MEAN ELEMENT SET
  
    ISS
    1 25544U 98067A   19138.34563986  .00016717  00000-0  10270-3 0  9070
    2 25544  51.6390 149.4639 0001430 349.9318  10.1805 15.52664157 10612
  
  
    Satellite: ISS
    Catalog Number: 25544
    Epoch time:      19138.34563986   =   yrday.fracday
    Element set:     907
    Inclination:       51.6390  deg
    RA of node:       149.4639  deg
    Eccentricity:     .0001430     
    Arg of perigee:   349.9318  deg
    Mean anomaly:      10.1805  deg
    Mean motion:   15.52664157  rev/day
    Decay rate:    1.67170E-04  rev/day^2
    Epoch rev:            1061
    Checksum:              316
 
 
    Coasting Arc #9 (Orbit 1076)
    ---------------------------------------
 
    Vector Time (GMT): 2019/139/07:45:00.000
    Vector Time (MET): N/A
    Weight (LBS)     : 965984.1
 
              M50 Cartesian                         M50 Keplerian  
    -----------------------------------       --------------------------------
     X    =       -4442853.90                 A    =         6783456.76  meter
     Y    =       -1497959.87  meter          E    =           .0006162
     Z    =        4898073.76                 I    =           51.85017
     XDOT =       4550.220216                 Wp   =          109.95220
     YDOT =      -5695.604199  meter/sec      RA   =          143.48700  deg
     ZDOT =       2380.985299                 TA   =          316.77020
                                              MA   =          316.81855
                                              Ha   =            223.414  n.mi
                                              Hp   =            216.971
 
              M50 Cartesian                         J2K Cartesian  
    -----------------------------------       --------------------------------
     X    =      -14576292.31                 X    =        -4449565.62
     Y    =       -4914566.49  feet           Y    =        -1547681.01  meter
     Z    =       16069795.79                 Z    =         4876475.20
     XDOT =      14928.544015                 XDOT =        4602.006195
     YDOT =     -18686.365483  feet/sec       YDOT =       -5644.431145  meter/sec
     ZDOT =       7811.631557                 ZDOT =        2403.214144
 
              TDR Cartesian                         TDR Cartesian  
    -----------------------------------       --------------------------------
     X    =      -13864133.52                 X    =        -4225787.90
     Y    =       -6894931.48  feet           Y    =        -2101575.12  meter
     Z    =       15972016.77                 Z    =         4868270.71
     XDOT =      16811.854005                 XDOT =        5124.253101
     YDOT =     -15440.558125  feet/sec       YDOT =       -4706.282116  meter/sec
     ZDOT =       7912.844596                 ZDOT =        2411.835033
  
  
    The mean element set is posted at the UTC for which position is
    just north of the next ascending node relative to the above
    vector time
 
 
    TWO LINE MEAN ELEMENT SET
  
    ISS
    1 25544U 98067A   19139.37543495  .00016717  00000-0  10270-3 0  9088
    2 25544  51.6389 144.3414 0001475 353.8719   6.2415 15.52693442 10772
  
  
    Satellite: ISS
    Catalog Number: 25544
    Epoch time:      19139.37543495   =   yrday.fracday
    Element set:     908
    Inclination:       51.6389  deg
    RA of node:       144.3414  deg
    Eccentricity:     .0001475     
    Arg of perigee:   353.8719  deg
    Mean anomaly:       6.2415  deg
    Mean motion:   15.52693442  rev/day
    Decay rate:    1.67170E-04  rev/day^2
    Epoch rev:            1077
    Checksum:              324
 
 
    Coasting Arc #10 (Orbit 1091)
    ---------------------------------------
 
    Vector Time (GMT): 2019/140/07:45:00.000
    Vector Time (MET): N/A
    Weight (LBS)     : 965984.1
 
              M50 Cartesian                         M50 Keplerian  
    -----------------------------------       --------------------------------
     X    =        3613472.10                 A    =         6782033.68  meter
     Y    =        2318908.71  meter          E    =           .0014470
     Z    =       -5262544.03                 I    =           51.87063
     XDOT =      -5109.816449                 Wp   =           76.23645
     YDOT =       5605.020709  meter/sec      RA   =          138.51956  deg
     ZDOT =      -1037.827003                 TA   =          183.83381
                                              MA   =          183.84491
                                              Ha   =            223.362  n.mi
                                              Hp   =            217.110
 
              M50 Cartesian                         J2K Cartesian  
    -----------------------------------       --------------------------------
     X    =       11855223.43                 X    =         3612835.73
     Y    =        7607968.20  feet           Y    =         2359314.18  meter
     Z    =      -17265564.40                 Z    =        -5244992.13
     XDOT =     -16764.489662                 XDOT =       -5167.072354
     YDOT =      18389.175556  feet/sec       YDOT =        5547.559157  meter/sec
     ZDOT =      -3404.944237                 ZDOT =       -1062.787311
 
              TDR Cartesian                         TDR Cartesian  
    -----------------------------------       --------------------------------
     X    =       10961523.33                 X    =         3341072.31
     Y    =        9000400.04  feet           Y    =         2743321.93  meter
     Z    =      -17186186.95                 Z    =        -5238349.78
     XDOT =     -18188.546478                 XDOT =       -5543.868967
     YDOT =      15427.019127  feet/sec       YDOT =        4702.155430  meter/sec
     ZDOT =      -3518.558793                 ZDOT =       -1072.456720
  
  
    The mean element set is posted at the UTC for which position is
    just north of the next ascending node relative to the above
    vector time
 
 
    TWO LINE MEAN ELEMENT SET
  
    ISS
    1 25544U 98067A   19140.34086883  .00016717  00000-0  10270-3 0  9091
    2 25544  51.6383 139.5394 0001489 356.8679   3.2463 15.52655075 10929
  
  
    Satellite: ISS
    Catalog Number: 25544
    Epoch time:      19140.34086883   =   yrday.fracday
    Element set:     909
    Inclination:       51.6383  deg
    RA of node:       139.5394  deg
    Eccentricity:     .0001489     
    Arg of perigee:   356.8679  deg
    Mean anomaly:       3.2463  deg
    Mean motion:   15.52655075  rev/day
    Decay rate:    1.67170E-04  rev/day^2
    Epoch rev:            1092
    Checksum:              334
 
 
    Coasting Arc #11 (Orbit 1107)
    ---------------------------------------
 
    Vector Time (GMT): 2019/141/07:45:00.000
    Vector Time (MET): N/A
    Weight (LBS)     : 965984.1
 
              M50 Cartesian                         M50 Keplerian  
    -----------------------------------       --------------------------------
     X    =       -2747265.69                 A    =         6781532.51  meter
     Y    =       -3171715.88  meter          E    =           .0003384
     Z    =        5325402.98                 I    =           51.89480
     XDOT =       5478.723952                 Wp   =           48.44085
     YDOT =      -5353.474485  meter/sec      RA   =          133.55175  deg
     ZDOT =       -359.738704                 TA   =           44.99068
                                              MA   =           44.96327
                                              Ha   =            223.440  n.mi
                                              Hp   =            216.871
 
              M50 Cartesian                         J2K Cartesian  
    -----------------------------------       --------------------------------
     X    =       -9013338.88                 X    =        -2737462.60
     Y    =      -10405892.01  feet           Y    =        -3202383.65  meter
     Z    =       17471794.54                 Z    =         5312081.02
     XDOT =      17974.816116                 XDOT =        5539.928268
     YDOT =     -17563.892666  feet/sec       YDOT =       -5291.865295  meter/sec
     ZDOT =      -1180.245093                 ZDOT =        -332.976904
 
